[
    {
        "Altitude(m)": 566566.7091532986,
        "Argument of Periapsis(deg)": -0.007534386927657468,
        "Eccentricity": 0.0,
        "Inclination(deg)": 97.0,
        "Latitude(deg)": 25.193289976541386,
        "Longitude(deg)": 142.53204653850668,
        "Mean Anomaly(deg)": 154.64264775639583,
        "RAAN(deg)": 60.00198235120617,
        "Satellite Name": "Starlink Shell 3 1723",
        "Satellite Number": 1723,
        "Semi-Major Axis(m)": 6938478.169268562,
        "Time(s)": 190
    },
    {
        "Altitude(m)": 566489.8507078405,
        "Argument of Periapsis(deg)": -0.007930933608060494,
        "Eccentricity": 0.0,
        "Inclination(deg)": 97.0,
        "Latitude(deg)": 24.570742269528477,
        "Longitude(deg)": 142.39784423797934,
        "Mean Anomaly(deg)": 155.26812395410087,
        "RAAN(deg)": 60.00208668548019,
        "Satellite Name": "Starlink Shell 3 1723",
        "Satellite Number": 1723,
        "Semi-Major Axis(m)": 6938478.169268562,
        "Time(s)": 200
    },
    {
        "Altitude(m)": 566416.1519730837,
        "Argument of Periapsis(deg)": -0.008327480288463517,
        "Eccentricity": 0.0,
        "Inclination(deg)": 97.0,
        "Latitude(deg)": 23.948086554843464,
        "Longitude(deg)": 142.2645493514369,
        "Mean Anomaly(deg)": 155.89360015180597,
        "RAAN(deg)": 60.00219101975417,
        "Satellite Name": "Starlink Shell 3 1723",
        "Satellite Number": 1723,
        "Semi-Major Axis(m)": 6938478.169268562,
        "Time(s)": 210
    },
    {
        "Altitude(m)": 566345.675145899,
        "Argument of Periapsis(deg)": -0.008724026968866542,
        "Eccentricity": 0.0,
        "Inclination(deg)": 97.0,
        "Latitude(deg)": 23.325326246878173,
        "Longitude(deg)": 142.13212737039248,
        "Mean Anomaly(deg)": 156.519076349511,
        "RAAN(deg)": 60.00229535402819,
        "Satellite Name": "Starlink Shell 3 1723",
        "Satellite Number": 1723,
        "Semi-Major Axis(m)": 6938478.169268562,
        "Time(s)": 220
    },
    {
        "Altitude(m)": 566278.4810105248,
        "Argument of Periapsis(deg)": -0.009120573649269567,
        "Eccentricity": 0.0,
        "Inclination(deg)": 97.0,
        "Latitude(deg)": 22.70246472558733,
        "Longitude(deg)": 142.00054483311112,
        "Mean Anomaly(deg)": 157.144552547216,
        "RAAN(deg)": 60.002399688302205,
        "Satellite Name": "Starlink Shell 3 1723",
        "Satellite Number": 1723,
        "Semi-Major Axis(m)": 6938478.169268562,
        "Time(s)": 230
    },
    {
        "Altitude(m)": 566214.6289050406,
        "Argument of Periapsis(deg)": -0.009517120329672592,
        "Eccentricity": 0.0,
        "Inclination(deg)": 97.0,
        "Latitude(deg)": 22.079505339130264,
        "Longitude(deg)": 141.86976977623743,
        "Mean Anomaly(deg)": 157.77002874492104,
        "RAAN(deg)": 60.00250402257622,
        "Satellite Name": "Starlink Shell 3 1723",
        "Satellite Number": 1723,
        "Semi-Major Axis(m)": 6938478.169268562,
        "Time(s)": 240
    },
    {
        "Altitude(m)": 566154.1766885495,
        "Argument of Periapsis(deg)": -0.009913667010075618,
        "Eccentricity": 0.0,
        "Inclination(deg)": 97.0,
        "Latitude(deg)": 21.45645140633305,
        "Longitude(deg)": 141.73977067618355,
        "Mean Anomaly(deg)": 158.39550494262613,
        "RAAN(deg)": 60.002608356850224,
        "Satellite Name": "Starlink Shell 3 1723",
        "Satellite Number": 1723,
        "Semi-Major Axis(m)": 6938478.169268562,
        "Time(s)": 250
    },
    {
        "Altitude(m)": 566097.1807090539,
        "Argument of Periapsis(deg)": -0.010310213690478642,
        "Eccentricity": 0.0,
        "Inclination(deg)": 97.0,
        "Latitude(deg)": 20.83330621897912,
        "Longitude(deg)": 141.61051690585694,
        "Mean Anomaly(deg)": 159.02098114033117,
        "RAAN(deg)": 60.00271269112424,
        "Satellite Name": "Starlink Shell 3 1723",
        "Satellite Number": 1723,
        "Semi-Major Axis(m)": 6938478.169268562,
        "Time(s)": 260
    },
    {
        "Altitude(m)": 566043.6957720314,
        "Argument of Periapsis(deg)": -0.010706760370881667,
        "Eccentricity": 0.0,
        "Inclination(deg)": 97.0,
        "Latitude(deg)": 20.210073043939424,
        "Longitude(deg)": 141.48197919369514,
        "Mean Anomaly(deg)": 159.64645733803619,
        "RAAN(deg)": 60.00281702539824,
        "Satellite Name": "Starlink Shell 3 1723",
        "Satellite Number": 1723,
        "Semi-Major Axis(m)": 6938478.169268562,
        "Time(s)": 270
    },
    {
        "Altitude(m)": 565993.7751097744,
        "Argument of Periapsis(deg)": -0.011103307051284692,
        "Eccentricity": 0.0,
        "Inclination(deg)": 97.0,
        "Latitude(deg)": 19.586755125154916,
        "Longitude(deg)": 141.35412857198756,
        "Mean Anomaly(deg)": 160.27193353574123,
        "RAAN(deg)": 60.00292135967225,
        "Satellite Name": "Starlink Shell 3 1723",
        "Satellite Number": 1723,
        "Semi-Major Axis(m)": 6938478.169268562,
        "Time(s)": 280
    },
    {
        "Altitude(m)": 565947.4703514754,
        "Argument of Periapsis(deg)": -0.011499853731687715,
        "Eccentricity": 0.0,
        "Inclination(deg)": 97.0,
        "Latitude(deg)": 18.96335568547533,
        "Longitude(deg)": 141.22693684009383,
        "Mean Anomaly(deg)": 160.89740973344627,
        "RAAN(deg)": 60.003025693946256,
        "Satellite Name": "Starlink Shell 3 1723",
        "Satellite Number": 1723,
        "Semi-Major Axis(m)": 6938478.169268562,
        "Time(s)": 290
    },
    {
        "Altitude(m)": 565904.8314940543,
        "Argument of Periapsis(deg)": -0.011896400412090741,
        "Eccentricity": 0.0,
        "Inclination(deg)": 97.0,
        "Latitude(deg)": 18.33987792836563,
        "Longitude(deg)": 141.10037702955674,
        "Mean Anomaly(deg)": 161.5228859311513,
        "RAAN(deg)": 60.00313002822027,
        "Satellite Name": "Starlink Shell 3 1723",
        "Satellite Number": 1723,
        "Semi-Major Axis(m)": 6938478.169268562,
        "Time(s)": 300
    },
    {
        "Altitude(m)": 565865.9068738449,
        "Argument of Periapsis(deg)": -0.012292947092493765,
        "Eccentricity": 0.0,
        "Inclination(deg)": 97.0,
        "Latitude(deg)": 17.716325039488872,
        "Longitude(deg)": 140.9744223581157,
        "Mean Anomaly(deg)": 162.14836212885635,
        "RAAN(deg)": 60.003234362494275,
        "Satellite Name": "Starlink Shell 3 1723",
        "Satellite Number": 1723,
        "Semi-Major Axis(m)": 6938478.169268562,
        "Time(s)": 310
    },
    {
        "Altitude(m)": 565830.743138994,
        "Argument of Periapsis(deg)": -0.012689493772896788,
        "Eccentricity": 0.0,
        "Inclination(deg)": 97.0,
        "Latitude(deg)": 17.092700188169477,
        "Longitude(deg)": 140.84904669825553,
        "Mean Anomaly(deg)": 162.7738383265614,
        "RAAN(deg)": 60.00333869676829,
        "Satellite Name": "Starlink Shell 3 1723",
        "Satellite Number": 1723,
        "Semi-Major Axis(m)": 6938478.169268562,
        "Time(s)": 320
    },
    {
        "Altitude(m)": 565799.3852227654,
        "Argument of Periapsis(deg)": -0.013086040453299813,
        "Eccentricity": 0.0,
        "Inclination(deg)": 97.0,
        "Latitude(deg)": 16.469006528746714,
        "Longitude(deg)": 140.72422504731145,
        "Mean Anomaly(deg)": 163.39931452426646,
        "RAAN(deg)": 60.00344303104229,
        "Satellite Name": "Starlink Shell 3 1723",
        "Satellite Number": 1723,
        "Semi-Major Axis(m)": 6938478.169268562,
        "Time(s)": 330
    },
    {
        "Altitude(m)": 565771.876317636,
        "Argument of Periapsis(deg)": -0.01348258713370284,
        "Eccentricity": 0.0,
        "Inclination(deg)": 97.0,
        "Latitude(deg)": 15.84524720182507,
        "Longitude(deg)": 140.59993248615783,
        "Mean Anomaly(deg)": 164.0247907219715,
        "RAAN(deg)": 60.0035473653163,
        "Satellite Name": "Starlink Shell 3 1723",
        "Satellite Number": 1723,
        "Semi-Major Axis(m)": 6938478.169268562,
        "Time(s)": 340
    },
    {
        "Altitude(m)": 565748.2578502478,
        "Argument of Periapsis(deg)": -0.013879133814105863,
        "Eccentricity": 0.0,
        "Inclination(deg)": 97.0,
        "Latitude(deg)": 15.221425335425716,
        "Longitude(deg)": 140.47614465213448,
        "Mean Anomaly(deg)": 164.65026691967654,
        "RAAN(deg)": 60.00365169959031,
        "Satellite Name": "Starlink Shell 3 1723",
        "Satellite Number": 1723,
        "Semi-Major Axis(m)": 6938478.169268562,
        "Time(s)": 350
    },
    {
        "Altitude(m)": 565728.5694572434,
        "Argument of Periapsis(deg)": -0.01427568049450889,
        "Eccentricity": 0.0,
        "Inclination(deg)": 97.0,
        "Latitude(deg)": 14.59754404604563,
        "Longitude(deg)": 140.35283821325012,
        "Mean Anomaly(deg)": 165.27574311738158,
        "RAAN(deg)": 60.00375603386432,
        "Satellite Name": "Starlink Shell 3 1723",
        "Satellite Number": 1723,
        "Semi-Major Axis(m)": 6938478.169268562,
        "Time(s)": 360
    },
    {
        "Altitude(m)": 565712.8489619796,
        "Argument of Periapsis(deg)": -0.014672227174911913,
        "Eccentricity": 0.0,
        "Inclination(deg)": 97.0,
        "Latitude(deg)": 13.973606439632213,
        "Longitude(deg)": 140.2299898307062,
        "Mean Anomaly(deg)": 165.90121931508662,
        "RAAN(deg)": 60.00386036813833,
        "Satellite Name": "Starlink Shell 3 1723",
        "Satellite Number": 1723,
        "Semi-Major Axis(m)": 6938478.169268562,
        "Time(s)": 370
    }
]